VCC C                   
1 44430U 98067QQ  20095.90157575  .00013565  00000-0  18786-3 0  9993
2 44430  51.6412 342.4983 0003102  83.0825 277.0520 15.57410117 41898
VCC B                   
1 44431U 98067QR  20095.93655942  .00008539  00000-0  12746-3 0  9993
2 44431  51.6416 343.4787 0003451  75.4028 284.7346 15.55942446 42999
ATL-1                   
1 44830U 19084G   20095.76228081  .00039333  00000-0  29608-3 0  9990
2 44830  96.9880 324.5235 0033791 157.1000 203.1780 15.71637443 18856
SMOG-P                  
1 44832U 19084J   20096.37541084  .00047596  00000-0  34852-3 0  9998
2 44832  96.9881 325.2018 0032997 153.6709 206.6242 15.72289117 18954
DUCHIFAT-3              
1 44854U 19089C   20096.29097790  .00000471  00000-0  44570-4 0  9998
2 44854  36.9659 170.7101 0007357 197.9869 162.0630 14.99013883 17319
ORBITAL FACTORY 2 (OF-2)
1 45113U 19071C   20095.89614732  .00001055  00000-0  44132-4 0  9997
2 45113  51.6445 358.8112 0013456 150.0162 210.1593 15.33064550  9847
